[{"OBJECT_NAME":"TEVEL2-6","OBJECT_ID":"2025-052F","EPOCH":"2026-03-09T15:35:24.554400","MEAN_MOTION":15.30760889,"ECCENTRICITY":0.0004769,"INCLINATION":97.4016,"RA_OF_ASC_NODE":325.0381,"ARG_OF_PERICENTER":95.6604,"MEAN_ANOMALY":264.5181,"EPHEMERIS_TYPE":0,"CLASSIFICATION_TYPE":"U","NORAD_CAT_ID":63215,"ELEMENT_SET_NO":999,"REV_AT_EPOCH":5486,"BSTAR":0.00070909,"MEAN_MOTION_DOT":0.00021046,"MEAN_MOTION_DDOT":0},{"OBJECT_NAME":"STARLINK-36255","OBJECT_ID":"2025-299A","EPOCH":"2026-03-09T18:01:54.203520","MEAN_MOTION":15.30999452,"ECCENTRICITY":0.00019102,"INCLINATION":43.0001,"RA_OF_ASC_NODE":168.8294,"ARG_OF_PERICENTER":290.3386,"MEAN_ANOMALY":69.7262,"EPHEMERIS_TYPE":0,"CLASSIFICATION_TYPE":"U","NORAD_CAT_ID":67102,"ELEMENT_SET_NO":999,"REV_AT_EPOCH":1312,"BSTAR":-0.011338203,"MEAN_MOTION_DOT":-0.00332006,"MEAN_MOTION_DDOT":0}]
