TEVEL2-6                
1 63215U 25052F   26068.64958975  .00021046  00000+0  70909-3 0  9996
2 63215  97.4016 325.0381 0004769  95.6604 264.5181 15.30760889 54861
STARLINK-36255          
1 67102U 25299A   26068.75132180 -.00332006  00000+0 -11338-1 0  9994
2 67102  43.0001 168.8294 0001910 290.3386  69.7262 15.30999452 13122
